{"type": "FeatureCollection", "features": [{"type": "Feature", "geometry": {"type": "Polygon", "coordinates": [[[-89.42, 34.67], [-85.37, 35.92], [-84.34, 35.51], [-84.19, 34.92], [-84.6, 33.55], [-85.14, 32.71], [-86.0, 31.66], [-88.48, 30.85], [-90.92, 30.64], [-93.65, 30.52], [-96.52, 30.08], [-96.82, 30.26], [-96.48, 30.78], [-95.48, 31.35], [-94.81, 31.83], [-92.91, 33.22], [-89.42, 34.67]], [[-93.53, 32.42], [-93.94, 32.04], [-93.5, 31.38], [-92.18, 31.17], [-88.72, 31.12], [-87.15, 31.63], [-86.0, 32.1], [-85.27, 32.82], [-84.77, 34.02], [-84.95, 34.61], [-86.17, 34.59], [-87.62, 34.61], [-90.0, 33.88], [-91.17, 33.5], [-92.78, 32.83], [-93.53, 32.42]]]}, "properties": {"DN": 2, "VALID": "202605061300", "EXPIRE": "202605071200", "ISSUE": "202605061242", "VALID_ISO": "2026-05-06T13:00:00+00:00", "EXPIRE_ISO": "2026-05-07T12:00:00+00:00", "ISSUE_ISO": "2026-05-06T12:42:00+00:00", "FORECASTER": "Mosier", "LABEL": "0.02", "LABEL2": "2% Tornado Risk", "stroke": "#1A731D", "fill": "#79BA7A"}}, {"type": "Feature", "geometry": {"type": "Polygon", "coordinates": [[[-87.62, 34.61], [-86.17, 34.59], [-84.95, 34.61], [-84.77, 34.02], [-85.27, 32.82], [-86.0, 32.1], [-87.15, 31.63], [-88.72, 31.12], [-92.18, 31.17], [-93.5, 31.38], [-93.94, 32.04], [-93.53, 32.42], [-92.78, 32.83], [-91.17, 33.5], [-90.0, 33.88], [-87.62, 34.61]], [[-85.83, 33.63], [-86.45, 33.94], [-87.41, 33.84], [-89.87, 33.43], [-90.72, 33.19], [-91.75, 32.57], [-91.8, 31.88], [-91.31, 31.47], [-88.88, 31.66], [-86.61, 32.56], [-86.01, 33.0], [-85.83, 33.63]]]}, "properties": {"DN": 5, "VALID": "202605061300", "EXPIRE": "202605071200", "ISSUE": "202605061242", "VALID_ISO": "2026-05-06T13:00:00+00:00", "EXPIRE_ISO": "2026-05-07T12:00:00+00:00", "ISSUE_ISO": "2026-05-06T12:42:00+00:00", "FORECASTER": "Mosier", "LABEL": "0.05", "LABEL2": "5% Tornado Risk", "stroke": "#7F3F27", "fill": "#BD998A"}}, {"type": "Feature", "geometry": {"type": "Polygon", "coordinates": [[[-88.88, 31.66], [-91.31, 31.47], [-91.8, 31.88], [-91.75, 32.57], [-90.72, 33.19], [-89.87, 33.43], [-87.41, 33.84], [-86.45, 33.94], [-85.83, 33.63], [-86.01, 33.0], [-86.61, 32.56], [-88.88, 31.66]]]}, "properties": {"DN": 10, "VALID": "202605061300", "EXPIRE": "202605071200", "ISSUE": "202605061242", "VALID_ISO": "2026-05-06T13:00:00+00:00", "EXPIRE_ISO": "2026-05-07T12:00:00+00:00", "ISSUE_ISO": "2026-05-06T12:42:00+00:00", "FORECASTER": "Mosier", "LABEL": "0.10", "LABEL2": "10% Tornado Risk", "stroke": "#FD8A2B", "fill": "#FFE481"}}, {"type": "Feature", "geometry": {"type": "Polygon", "coordinates": [[[-87.64, 34.61], [-87.38, 34.61], [-86.27, 34.61], [-84.96, 34.59], [-84.8, 34.06], [-85.12, 32.74], [-86.07, 31.62], [-88.61, 30.84], [-91.51, 30.59], [-93.02, 30.77], [-93.42, 31.22], [-93.66, 31.65], [-93.88, 32.04], [-93.92, 32.07], [-93.52, 32.4], [-92.81, 32.82], [-91.23, 33.48], [-87.64, 34.61]]]}, "properties": {"DN": 2, "VALID": "202605061300", "EXPIRE": "202605071200", "ISSUE": "202605061242", "VALID_ISO": "2026-05-06T13:00:00+00:00", "EXPIRE_ISO": "2026-05-07T12:00:00+00:00", "ISSUE_ISO": "2026-05-06T12:42:00+00:00", "FORECASTER": "Mosier", "LABEL": "CIG1", "LABEL2": "Tornado Conditional Intensity Group 1 Risk", "stroke": "#000000", "fill": "#888888"}}]}