{"type": "FeatureCollection", "features": [{"type": "Feature", "geometry": {"type": "MultiPolygon", "coordinates": [[[[-77.62, 34.93], [-79.26, 34.26], [-81.01, 32.25], [-83.75, 30.74], [-86.04, 30.36], [-89.56, 29.87], [-94.73, 29.41], [-96.59, 28.5], [-98.0, 28.67], [-100.00982947287675, 27.747031100438576], [-100.23, 28.008], [-100.41, 28.265], [-100.596, 28.593], [-100.754, 28.844], [-100.78731401777591, 28.889621107145356], [-97.85, 28.98], [-89.71, 30.52], [-88.7, 30.64], [-86.44, 30.69], [-84.19, 31.42], [-82.52, 32.52], [-80.25, 34.38], [-79.8, 34.95], [-79.92, 35.55], [-80.78, 36.39], [-81.86, 36.9], [-82.38, 36.98], [-83.54, 36.92], [-86.09, 36.54], [-92.3, 35.14], [-93.83, 34.46], [-95.65, 33.33], [-98.56, 31.77], [-101.51, 30.84], [-101.87, 30.19], [-101.95357523412102, 29.627766606822263], [-102.125, 29.651], [-102.26550511241746, 29.646182681859973], [-102.29, 31.32], [-98.76, 32.66], [-96.97, 33.5], [-93.93, 35.74], [-90.15, 36.85], [-84.33, 38.05], [-79.1, 39.48], [-76.22, 41.5], [-73.61, 41.9], [-71.03, 42.76], [-70.28, 42.94], [-70.06600590896501, 42.979506601421846], [-70.094, 42.939], [-70.041, 42.768], [-69.908, 42.491], [-69.795, 42.31], [-69.595, 42.133], [-69.483, 42.001], [-69.443, 41.721], [-69.548, 41.498], [-69.488, 41.199], [-69.663, 41.018], [-69.946, 40.916], [-70.34, 40.942], [-70.838, 40.931], [-71.244, 40.859], [-71.608, 40.77], [-72.156, 40.586], [-72.567, 40.462], [-72.893, 40.33], [-73.2, 40.303], [-73.648, 40.236], [-73.751, 39.803], [-73.839, 39.533], [-74.085, 39.198], [-74.372, 38.982], [-74.504, 38.814], [-74.716, 38.67], [-74.701, 38.442], [-74.762, 38.239], [-75.086, 37.666], [-75.263, 37.548], [-75.356, 37.334], [-75.645, 36.894], [-75.37267616439753, 36.203251584876945], [-77.62, 34.93]]], [[[-101.14, 35.55], [-102.78, 34.55], [-104.89, 34.37], [-106.75, 34.6], [-107.51, 34.85], [-108.62, 35.64], [-109.46000000000001, 36.42], [-110.18, 37.81], [-109.62, 39.04], [-107.32, 39.92], [-106.64, 39.89], [-103.53, 37.19], [-101.46, 36.39], [-101.14, 35.55]]], [[[-108.78999999999999, 46.76], [-109.9, 46.31], [-111.88, 46.1], [-114.73, 46.62], [-118.06715725761127, 49.21364553700357], [-117.702, 49.217], [-116.063, 49.223], [-114.53, 49.22], [-113.003, 49.227], [-111.288, 49.211], [-110.80808063476579, 49.20953235668124], [-108.78999999999999, 46.76]]]]}, "properties": {"DN": 2, "VALID": "202605061300", "EXPIRE": "202605071200", "ISSUE": "202605061242", "VALID_ISO": "2026-05-06T13:00:00+00:00", "EXPIRE_ISO": "2026-05-07T12:00:00+00:00", "ISSUE_ISO": "2026-05-06T12:42:00+00:00", "FORECASTER": "Mosier/Dean", "LABEL": "TSTM", "LABEL2": "General Thunderstorms Risk", "stroke": "#55BB55", "fill": "#C1E9C1"}}, {"type": "Feature", "geometry": {"type": "Polygon", "coordinates": [[[-101.87, 30.19], [-101.51, 30.84], [-98.56, 31.77], [-95.65, 33.33], [-93.83, 34.46], [-92.3, 35.14], [-86.09, 36.54], [-83.54, 36.92], [-82.38, 36.98], [-81.86, 36.9], [-80.78, 36.39], [-79.92, 35.55], [-79.8, 34.95], [-80.25, 34.38], [-82.52, 32.52], [-84.19, 31.42], [-86.44, 30.69], [-88.7, 30.64], [-89.71, 30.52], [-97.85, 28.98], [-100.78731401777591, 28.889621107145356], [-100.911, 29.059], [-101.161, 29.268], [-101.45, 29.518], [-101.616, 29.594], [-101.852, 29.614], [-101.95357523412102, 29.627766606822263], [-101.87, 30.19]], [[-97.58, 31.07], [-97.33, 30.31], [-96.88, 30.11], [-93.13, 30.54], [-90.56, 31.0], [-88.72, 31.12], [-88.43, 31.21], [-85.83, 31.55], [-83.38, 33.29], [-82.47, 33.74], [-82.67, 34.4], [-86.42, 34.85], [-87.96, 34.93], [-89.4, 34.75], [-90.2, 34.5], [-92.2, 34.18], [-94.68, 33.33], [-95.79, 32.74], [-97.37, 31.6], [-97.58, 31.07]], [[-101.05, 30.43], [-100.91, 30.28], [-100.6, 30.26], [-98.95, 30.49], [-98.51, 30.75], [-98.49, 30.99], [-98.62, 31.29], [-99.14, 31.33], [-100.8, 30.8], [-101.0, 30.66], [-101.05, 30.43]]]}, "properties": {"DN": 3, "VALID": "202605061300", "EXPIRE": "202605071200", "ISSUE": "202605061242", "VALID_ISO": "2026-05-06T13:00:00+00:00", "EXPIRE_ISO": "2026-05-07T12:00:00+00:00", "ISSUE_ISO": "2026-05-06T12:42:00+00:00", "FORECASTER": "Mosier/Dean", "LABEL": "MRGL", "LABEL2": "Marginal Risk", "stroke": "#005500", "fill": "#66A366"}}, {"type": "Feature", "geometry": {"type": "MultiPolygon", "coordinates": [[[[-92.2, 34.18], [-90.2, 34.5], [-89.4, 34.75], [-87.96, 34.93], [-86.42, 34.85], [-82.67, 34.4], [-82.47, 33.74], [-83.38, 33.29], [-85.83, 31.55], [-88.43, 31.21], [-88.72, 31.12], [-90.56, 31.0], [-93.13, 30.54], [-96.88, 30.11], [-97.33, 30.31], [-97.58, 31.07], [-97.37, 31.6], [-95.79, 32.74], [-94.68, 33.33], [-92.2, 34.18]], [[-91.8, 31.88], [-91.31, 31.47], [-88.88, 31.66], [-86.61, 32.56], [-86.01, 33.0], [-85.83, 33.63], [-86.45, 33.94], [-89.87, 33.43], [-90.72, 33.19], [-91.75, 32.57], [-91.8, 31.88]]], [[[-98.62, 31.29], [-98.49, 30.99], [-98.51, 30.75], [-98.95, 30.49], [-100.6, 30.26], [-100.91, 30.28], [-101.05, 30.43], [-101.0, 30.66], [-100.8, 30.8], [-99.14, 31.33], [-98.62, 31.29]]]]}, "properties": {"DN": 4, "VALID": "202605061300", "EXPIRE": "202605071200", "ISSUE": "202605061242", "VALID_ISO": "2026-05-06T13:00:00+00:00", "EXPIRE_ISO": "2026-05-07T12:00:00+00:00", "ISSUE_ISO": "2026-05-06T12:42:00+00:00", "FORECASTER": "Mosier/Dean", "LABEL": "SLGT", "LABEL2": "Slight Risk", "stroke": "#DDAA00", "fill": "#FFE066"}}, {"type": "Feature", "geometry": {"type": "Polygon", "coordinates": [[[-89.87, 33.43], [-86.45, 33.94], [-85.83, 33.63], [-86.01, 33.0], [-86.61, 32.56], [-88.88, 31.66], [-91.31, 31.47], [-91.8, 31.88], [-91.75, 32.57], [-90.72, 33.19], [-89.87, 33.43]]]}, "properties": {"DN": 5, "VALID": "202605061300", "EXPIRE": "202605071200", "ISSUE": "202605061242", "VALID_ISO": "2026-05-06T13:00:00+00:00", "EXPIRE_ISO": "2026-05-07T12:00:00+00:00", "ISSUE_ISO": "2026-05-06T12:42:00+00:00", "FORECASTER": "Mosier/Dean", "LABEL": "ENH", "LABEL2": "Enhanced Risk", "stroke": "#FF6600", "fill": "#FFA366"}}]}