{"type": "FeatureCollection", "features": [{"type": "Feature", "properties": {"dn": 1, "PRODUCT": "Day 3 Excessive Rainfall Potential Forecast", "VALID_TIME": "12Z 10/09/26 - 12Z 10/10/26", "OUTLOOK": "Marginal (At Least 5%)", "ISSUE_TIME": "2026-10-07 08:27:00", "START_TIME": "2026-10-09 12:00:00", "END_TIME": "2026-10-10 12:00:00", "Snippet": "12Z 10/09/26 - 12Z 10/10/26"}, "geometry": {"type": "MultiPolygon", "coordinates": [[[[-88.6263269559462, 29.297570372466986], [-88.64102342874018, 29.024471877489752], [-88.75340559478273, 28.891251250301593], [-88.73756935530442, 29.210875309202702], [-88.88354642467056, 29.39820134166101], [-89.55405787602491, 29.605450905213896], [-90.12774051334893, 29.670004915508837], [-90.49002612589467, 29.818476086418897], [-90.73234126938164, 30.371614451075917], [-90.81654690151825, 30.965157117867335], [-91.21499126423342, 31.747331384047765], [-91.42119036735141, 31.978946012755323], [-91.40986719012197, 32.341418345217186], [-91.29390314034411, 32.61063459513787], [-90.60767716108641, 33.679144801474095], [-89.46954364809307, 34.72833522002555], [-88.96021344620213, 35.02572495043908], [-88.4012155820721, 35.18442504891289], [-86.07546824244724, 35.34565210831748], [-84.20947807773851, 35.23471111735091], [-83.64760373336502, 35.33242051073306], [-82.88491676994012, 35.23329921505851], [-82.53591456919577, 34.89037494136593], [-82.35840734159599, 34.515142977082455], [-82.0255588705082, 33.12888530971734], [-81.50451703001164, 32.4948713844327], [-81.33412758942923, 32.11609169780496], [-80.7406272890233, 31.699283483611605], [-81.12021116667621, 30.77425779181026], [-81.06926742590505, 30.312625737486528], [-80.75520059408946, 29.414626373216457], [-80.2339547067225, 28.540550061982096], [-80.74022228411368, 28.679112671561878], [-82.13657989834711, 28.8019958407936], [-82.99298747193706, 28.596382291460053], [-82.98013486242392, 28.7336168061601], [-83.28088857068678, 28.847362681859316], [-83.32023214938555, 28.98850924755592], [-83.83551159643507, 29.620817152541008], [-83.98540285520308, 29.692108922093063], [-84.08985618273041, 29.69946174504495], [-84.42804338715118, 29.476608537733895], [-84.08704660242334, 29.72971841276218], [-83.88239405729021, 29.66955933444502], [-83.82532023810025, 29.71146617526297], [-83.70328573362784, 30.43330923593376], [-83.5827894923001, 32.201660137021705], [-83.67554848401876, 33.43436544366666], [-83.75651039788242, 33.711926607088635], [-83.95564148861135, 33.90716557985249], [-84.32635613250638, 34.02236754106542], [-85.30704002385052, 34.03829426356096], [-86.24579840759134, 34.58804942039173], [-87.55316757596924, 34.69749896191215], [-88.10815027541607, 34.586402423295766], [-88.50095343240167, 34.422005276216545], [-89.45517172147285, 33.91548942696855], [-89.90659381523203, 33.56833953350309], [-90.022851367004, 33.39111040651593], [-90.04066541729057, 32.98447768631884], [-89.80643549409591, 32.20680943021436], [-89.31860733059241, 31.236663982428613], [-89.31675509396585, 30.190162030128647], [-88.97451243950471, 29.6761945764181], [-88.67749416522902, 29.44013192232774], [-88.72582426544463, 29.392829315223135], [-88.6263269559462, 29.297570372466986]]], [[[-84.91652730596495, 29.252765696468288], [-85.1768504001735, 29.269469043122005], [-85.6869547348701, 29.437906280103434], [-85.75758924982256, 29.655452795826765], [-85.96862488042487, 29.86525609796954], [-86.4798101933577, 30.06709117054148], [-87.70401077729491, 29.855469840529768], [-88.38733618876296, 29.84962085241296], [-88.41293545579818, 29.69906613997842], [-88.65589639715795, 29.461270524003396], [-88.38562995539984, 29.879932882157583], [-88.17809654246271, 29.875948669187164], [-88.17596500517156, 29.87110502356911], [-88.12617418621693, 29.87495186716728], [-87.70330473589726, 29.866833646949562], [-86.4789843425072, 30.07844525356971], [-86.17762969119465, 29.970932771630302], [-86.01865234103037, 29.898746421181475], [-86.00855397669557, 29.910612648405714], [-85.96629504887629, 29.895536185526645], [-85.72275073279788, 29.653383602072367], [-85.68456105246398, 29.468200879570126], [-85.17432942847834, 29.299762501751], [-84.91394001320526, 29.28305554770757], [-84.49592119596404, 29.43187950244972], [-84.5922252092118, 29.368418620581206], [-84.91652730596495, 29.252765696468288]]]]}}, {"type": "Feature", "properties": {"dn": 2, "PRODUCT": "Day 3 Excessive Rainfall Potential Forecast", "VALID_TIME": "12Z 10/09/26 - 12Z 10/10/26", "OUTLOOK": "Slight (At Least 15%)", "ISSUE_TIME": "2026-10-07 08:27:00", "START_TIME": "2026-10-09 12:00:00", "END_TIME": "2026-10-10 12:00:00", "Snippet": "12Z 10/09/26 - 12Z 10/10/26"}, "geometry": {"type": "MultiPolygon", "coordinates": [[[[-88.38562995539984, 29.879932882157583], [-88.67223874206148, 29.435955044173284], [-88.97451243950471, 29.6761945764181], [-89.31675509396585, 30.190162030128647], [-89.31860733059241, 31.236663982428613], [-89.80643549409591, 32.20680943021436], [-90.04066541729057, 32.98447768631884], [-90.022851367004, 33.39111040651593], [-89.90659381523203, 33.56833953350309], [-89.45517172147285, 33.91548942696855], [-88.50095343240167, 34.422005276216545], [-88.10815027541607, 34.586402423295766], [-87.55316757596924, 34.69749896191215], [-86.24579840759134, 34.58804942039173], [-85.30704002385052, 34.03829426356096], [-84.32635613250638, 34.02236754106542], [-83.95564148861135, 33.90716557985249], [-83.75651039788242, 33.711926607088635], [-83.67554848401876, 33.43436544366666], [-83.5827894923001, 32.201660137021705], [-83.70328573362784, 30.43330923593376], [-83.82532023810025, 29.71146617526297], [-83.88239405729021, 29.66955933444502], [-84.08704660242334, 29.72971841276218], [-84.4812820376813, 29.43709136693973], [-84.91394001320526, 29.28305554770757], [-85.17432942847834, 29.299762501751], [-85.68456105246398, 29.468200879570126], [-85.72275073279788, 29.653383602072367], [-85.96629504887629, 29.895536185526645], [-86.00855397669557, 29.910612648405714], [-85.61193129058672, 30.376669799803224], [-85.59365612278715, 30.603502144997524], [-85.68450994056613, 30.79117594391479], [-85.93442574875024, 30.988111047965806], [-87.04510004928473, 31.047939922381598], [-87.35666186112404, 31.154304871848616], [-88.048202946349, 31.140706126769484], [-88.48507807180218, 30.931695927384], [-88.50284208198518, 30.613891334331843], [-88.17809654246271, 29.875948669187164], [-88.38562995539984, 29.879932882157583]]], [[[-86.4789843425072, 30.07844525356971], [-87.70330473589726, 29.866833646949562], [-88.12617418621693, 29.87495186716728], [-87.43658619157061, 29.928229503853572], [-86.47691971538097, 30.10683046114033], [-86.17762969119465, 29.970932771630302], [-86.4789843425072, 30.07844525356971]]]]}}, {"type": "Feature", "properties": {"dn": 3, "PRODUCT": "Day 3 Excessive Rainfall Potential Forecast", "VALID_TIME": "12Z 10/09/26 - 12Z 10/10/26", "OUTLOOK": "Moderate (At Least 40%)", "ISSUE_TIME": "2026-10-07 08:27:00", "START_TIME": "2026-10-09 12:00:00", "END_TIME": "2026-10-10 12:00:00", "Snippet": "12Z 10/09/26 - 12Z 10/10/26"}, "geometry": {"type": "Polygon", "coordinates": [[[-86.47691971538097, 30.10683046114033], [-87.43658619157061, 29.928229503853572], [-88.12617418621693, 29.87495186716728], [-88.12617418621691, 29.87495186716728], [-88.17596500517156, 29.87110502356911], [-88.17809654246271, 29.875948669187164], [-88.50284208198518, 30.613891334331843], [-88.48507807180218, 30.931695927384], [-88.048202946349, 31.140706126769484], [-87.35666186112404, 31.154304871848616], [-87.04510004928473, 31.047939922381598], [-85.93442574875024, 30.988111047965806], [-85.68450994056613, 30.79117594391479], [-85.59365612278715, 30.603502144997524], [-85.61193129058672, 30.376669799803224], [-86.00855397669557, 29.910612648405714], [-86.01865234103037, 29.898746421181475], [-86.47691971538097, 30.10683046114033]]]}}]}